ONEWEB-0538             
1 56047U 23043B   24003.64008497  .00000043  00000+0  78240-4 0  9992
2 56047  87.9050  47.0277 0002157  99.6105 260.5270 13.16592780 41138
ONEWEB-0546             
1 56048U 23043C   24003.62742552  .00000021  00000+0  20556-4 0  9991
2 56048  87.9050  46.9917 0001965  68.5484 291.5856 13.16593220 41122
ONEWEB-0547             
1 56049U 23043D   24003.68441932  .00000017  00000+0  84758-5 0  9996
2 56049  87.9231  62.2448 0002386  98.1238 262.0166 13.21826485 39928
ONEWEB-0548             
1 56050U 23043E   24003.65275413  .00000059  00000+0  12035-3 0  9997
2 56050  87.9052  47.0309 0001208 107.5833 252.5429 13.16593475 41121
ONEWEB-0549             
1 56051U 23043F   24003.67652532 -.00000066  00000+0 -19118-3 0  9990
2 56051  87.9227  62.2462 0001878 103.2168 256.9175 13.21826363 39924
ONEWEB-0550             
1 56052U 23043G   24003.66391786  .00000045  00000+0  77877-4 0  9993
2 56052  87.9228  62.2622 0001722 107.2759 252.8564 13.21825495 39924
ONEWEB-0551             
1 56053U 23043H   24003.73230595  .00000225  00000+0  56292-3 0  9999
2 56053  87.8995  77.4856 0001977 110.0074 250.1269 13.15548526 38669
ONEWEB-0552             
1 56054U 23043J   24003.65760742  .00000061  00000+0  11732-3 0  9991
2 56054  87.9228  62.2738 0001740 112.9945 247.1373 13.21826345 39924
